{
  "links" : {
    "next" : "https://api.nasa.gov/neo/rest/v1/feed?start_date=2014-11-23&end_date=2014-11-23&detailed=true&api_key=t0TVs3DtDT2H8Oy2Zy8m2eVrNsAVKAexjcZXUckd",
    "prev" : "https://api.nasa.gov/neo/rest/v1/feed?start_date=2014-11-21&end_date=2014-11-21&detailed=true&api_key=t0TVs3DtDT2H8Oy2Zy8m2eVrNsAVKAexjcZXUckd",
    "self" : "https://api.nasa.gov/neo/rest/v1/feed?start_date=2014-11-22&end_date=2014-11-22&detailed=true&api_key=t0TVs3DtDT2H8Oy2Zy8m2eVrNsAVKAexjcZXUckd"
  },
  "element_count" : 16,
  "near_earth_objects" : {
    "2014-11-22" : [ {
      "links" : {
        "self" : "https://api.nasa.gov/neo/rest/v1/neo/3715095?api_key=t0TVs3DtDT2H8Oy2Zy8m2eVrNsAVKAexjcZXUckd"
      },
      "neo_reference_id" : "3715095",
      "name" : "(2015 FY284)",
      "nasa_jpl_url" : "http://ssd.jpl.nasa.gov/sbdb.cgi?sstr=3715095",
      "absolute_magnitude_h" : 21.6,
      "estimated_diameter" : {
        "kilometers" : {
          "estimated_diameter_min" : 0.1272198785,
          "estimated_diameter_max" : 0.2844722965
        },
        "meters" : {
          "estimated_diameter_min" : 127.2198785394,
          "estimated_diameter_max" : 284.4722965033
        },
        "miles" : {
          "estimated_diameter_min" : 0.0790507431,
          "estimated_diameter_max" : 0.1767628354
        },
        "feet" : {
          "estimated_diameter_min" : 417.3880663071,
          "estimated_diameter_max" : 933.3080892598
        }
      },
      "is_potentially_hazardous_asteroid" : false,
      "close_approach_data" : [ {
        "close_approach_date" : "2014-11-22",
        "epoch_date_close_approach" : 1416643200000,
        "relative_velocity" : {
          "kilometers_per_second" : "13.0635493918",
          "kilometers_per_hour" : "47028.7778105675",
          "miles_per_hour" : "29221.8536345718"
        },
        "miss_distance" : {
          "astronomical" : "0.4093393999",
          "lunar" : "159.2330322266",
          "kilometers" : "61236304",
          "miles" : "38050476"
        },
        "orbiting_body" : "Earth"
      } ],
      "orbital_data" : {
        "orbit_id" : "15",
        "orbit_determination_date" : "2017-04-06 08:34:39",
        "orbit_uncertainty" : "7",
        "minimum_orbit_intersection" : ".207468",
        "jupiter_tisserand_invariant" : "4.157",
        "epoch_osculation" : "2458000.5",
        "eccentricity" : ".3588843206677093",
        "semi_major_axis" : "1.619833042609337",
        "inclination" : "24.8894699260343",
        "ascending_node_longitude" : "20.67036940290291",
        "orbital_period" : "753.015312383613",
        "perihelion_distance" : "1.038500361517376",
        "perihelion_argument" : "110.5303783428297",
        "aphelion_distance" : "2.201165723701297",
        "perihelion_time" : "2457807.319577980115",
        "mean_anomaly" : "92.3552958133337",
        "mean_motion" : ".4780779276060765",
        "equinox" : "J2000"
      }
    }, {
      "links" : {
        "self" : "https://api.nasa.gov/neo/rest/v1/neo/3715994?api_key=t0TVs3DtDT2H8Oy2Zy8m2eVrNsAVKAexjcZXUckd"
      },
      "neo_reference_id" : "3715994",
      "name" : "(2015 HK)",
      "nasa_jpl_url" : "http://ssd.jpl.nasa.gov/sbdb.cgi?sstr=3715994",
      "absolute_magnitude_h" : 25.5,
      "estimated_diameter" : {
        "kilometers" : {
          "estimated_diameter_min" : 0.0211132445,
          "estimated_diameter_max" : 0.0472106499
        },
        "meters" : {
          "estimated_diameter_min" : 21.113244479,
          "estimated_diameter_max" : 47.2106498806
        },
        "miles" : {
          "estimated_diameter_min" : 0.0131191578,
          "estimated_diameter_max" : 0.0293353287
        },
        "feet" : {
          "estimated_diameter_min" : 69.2691770164,
          "estimated_diameter_max" : 154.8905885541
        }
      },
      "is_potentially_hazardous_asteroid" : false,
      "close_approach_data" : [ {
        "close_approach_date" : "2014-11-22",
        "epoch_date_close_approach" : 1416643200000,
        "relative_velocity" : {
          "kilometers_per_second" : "10.6606125437",
          "kilometers_per_hour" : "38378.2051571803",
          "miles_per_hour" : "23846.7241989157"
        },
        "miss_distance" : {
          "astronomical" : "0.2816467978",
          "lunar" : "109.5606002808",
          "kilometers" : "42133760",
          "miles" : "26180704"
        },
        "orbiting_body" : "Earth"
      } ],
      "orbital_data" : {
        "orbit_id" : "10",
        "orbit_determination_date" : "2017-04-06 08:34:22",
        "orbit_uncertainty" : "7",
        "minimum_orbit_intersection" : ".0289102",
        "jupiter_tisserand_invariant" : "6.740",
        "epoch_osculation" : "2458000.5",
        "eccentricity" : ".246289927331538",
        "semi_major_axis" : ".8723627316849258",
        "inclination" : "12.50196210229417",
        "ascending_node_longitude" : "33.60297861805537",
        "orbital_period" : "297.6076444853414",
        "perihelion_distance" : ".6575085778915035",
        "perihelion_argument" : "330.306840083346",
        "aphelion_distance" : "1.087216885478348",
        "perihelion_time" : "2458142.343120080274",
        "mean_anomaly" : "188.4199879435094",
        "mean_motion" : "1.209646347030349",
        "equinox" : "J2000"
      }
    }, {
      "links" : {
        "self" : "https://api.nasa.gov/neo/rest/v1/neo/3734189?api_key=t0TVs3DtDT2H8Oy2Zy8m2eVrNsAVKAexjcZXUckd"
      },
      "neo_reference_id" : "3734189",
      "name" : "(2015 VO66)",
      "nasa_jpl_url" : "http://ssd.jpl.nasa.gov/sbdb.cgi?sstr=3734189",
      "absolute_magnitude_h" : 20.6,
      "estimated_diameter" : {
        "kilometers" : {
          "estimated_diameter_min" : 0.2016299194,
          "estimated_diameter_max" : 0.4508582062
        },
        "meters" : {
          "estimated_diameter_min" : 201.6299194428,
          "estimated_diameter_max" : 450.8582061718
        },
        "miles" : {
          "estimated_diameter_min" : 0.1252869847,
          "estimated_diameter_max" : 0.2801502144
        },
        "feet" : {
          "estimated_diameter_min" : 661.5155049046,
          "estimated_diameter_max" : 1479.1936371367
        }
      },
      "is_potentially_hazardous_asteroid" : true,
      "close_approach_data" : [ {
        "close_approach_date" : "2014-11-22",
        "epoch_date_close_approach" : 1416643200000,
        "relative_velocity" : {
          "kilometers_per_second" : "25.2998669331",
          "kilometers_per_hour" : "91079.520959192",
          "miles_per_hour" : "56593.2723426713"
        },
        "miss_distance" : {
          "astronomical" : "0.1789171052",
          "lunar" : "69.5987548828",
          "kilometers" : "26765618",
          "miles" : "16631385"
        },
        "orbiting_body" : "Earth"
      } ],
      "orbital_data" : {
        "orbit_id" : "49",
        "orbit_determination_date" : "2017-04-06 08:30:44",
        "orbit_uncertainty" : "2",
        "minimum_orbit_intersection" : ".044003",
        "jupiter_tisserand_invariant" : "6.129",
        "epoch_osculation" : "2458000.5",
        "eccentricity" : ".599856408408718",
        "semi_major_axis" : ".9521408915729235",
        "inclination" : "14.02720313584155",
        "ascending_node_longitude" : "64.49136367081815",
        "orbital_period" : "339.3518746437779",
        "perihelion_distance" : ".380993076054915",
        "perihelion_argument" : "219.2688936605066",
        "aphelion_distance" : "1.523288707090932",
        "perihelion_time" : "2457950.591055615214",
        "mean_anomaly" : "52.94569242437028",
        "mean_motion" : "1.060845767768033",
        "equinox" : "J2000"
      }
    } ]
  }
}